NORAD_CAT_ID,OBJECT_NAME,OBJECT_TYPE,EPOCH,MEAN_MOTION,ECCENTRICITY,INCLINATION,RA_OF_ASC_NODE,ARG_OF_PERICENTER,MEAN_ANOMALY,BSTAR,MEAN_MOTION_DOT,MEAN_MOTION_DDOT,TLE_LINE0,TLE_LINE1,TLE_LINE2,SEMIMAJOR_AXIS,PERIOD,APOGEE,PERIGEE,DECAYED
51139.0,STARLINK-3172,PAYLOAD,2022-03-27 22:00:01,15.48884141,0.0001732,53.2161,300.4863,59.496,11.9283,0.00082439,0.00044983,0.0,0 STARLINK-3172,1 51139U 22005AM  22086.91668981  .00044983  00000-0  82439-3 0  9991,2 51139  53.2161 300.4863 0001732  59.4960  11.9283 15.48884141  3662,6798.126,92.97,421.169,418.814,0.0
51139.0,STARLINK-3172,PAYLOAD,2022-03-28 14:00:01,15.48946425,0.0001691,53.2158,297.3029,65.1367,125.829,-8.8748e-05,-5.316e-05,0.0,0 STARLINK-3172,1 51139U 22005AM  22087.58335648 -.00005316  00000-0 -88748-4 0  9995,2 51139  53.2158 297.3029 0001691  65.1367 125.8290 15.48946425  3651,6797.944,92.966,420.958,418.659,0.0
51139.0,STARLINK-3172,PAYLOAD,2022-03-28 22:00:00,15.48927733,0.0001871,53.2155,295.7141,57.9446,192.7387,0.00038291,0.00020621,0.0,0 STARLINK-3172,1 51139U 22005AM  22087.91667824  .00020621  00000-0  38291-3 0  9997,2 51139  53.2155 295.7141 0001871  57.9446 192.7387 15.48927733 12136,6797.999,92.968,421.136,418.592,0.0
51139.0,STARLINK-3172,PAYLOAD,2022-03-29 14:00:01,15.48741028,0.0001137,53.2156,292.5308,50.319,319.7587,0.00047549,0.00025561,0.0,0 STARLINK-3172,1 51139U 22005AM  22088.58334491  .00025561  00000-0  47549-3 0  9996,2 51139  53.2156 292.5308 0001137  50.3190 319.7587 15.48741028 12230,6798.545,92.979,421.1830000000001,419.637,0.0
51139.0,STARLINK-3172,PAYLOAD,2022-03-29 22:00:00,15.4874872,0.0001366,53.2155,290.9423,43.3631,26.2752,0.00057403,0.00030981,0.0,0 STARLINK-3172,1 51139U 22005AM  22088.91667824  .00030981  00000-0  57403-3 0  9994,2 51139  53.2155 290.9423 0001366  43.3631  26.2752 15.48748720  3640,6798.522,92.978,421.316,419.459,0.0
51139.0,STARLINK-3172,PAYLOAD,2022-03-30 12:00:00,15.48794483,0.0001486999999999,53.2161,288.1585,58.1008,25.7855,0.0041113999999999,0.00230877,0.0,0 STARLINK-3172,1 51139U 22005AM  22089.50001157  .00230877  00000-0  41114-2 0  9998,2 51139  53.2161 288.1585 0001487  58.1008  25.7855 15.48794483 12376,6798.389,92.976,421.264,419.24300000000005,0.0
51139.0,STARLINK-3172,PAYLOAD,2022-03-30 14:00:01,15.48811671,0.0001531999999999,53.2164,287.7619,57.2598,131.5969,0.0050591,0.00286426,0.0,0 STARLINK-3172,1 51139U 22005AM  22089.58335648  .00286426  00000-0  50591-2 0  9991,2 51139  53.2164 287.7619 0001532  57.2598 131.5969 15.48811671  3659,6798.3380000000025,92.975,421.245,419.162,0.0
51139.0,STARLINK-3172,PAYLOAD,2022-03-30 20:00:01,15.49197493,0.0001839,53.2169,286.5731,57.198,86.3212,-0.0066113,-0.00350766,0.0,0 STARLINK-3172,1 51139U 22005AM  22089.83334491 -.00350766  00000-0 -66113-2 0  9992,2 51139  53.2169 286.5731 0001839  57.1980  86.3212 15.49197493 12423,6797.209,92.951,420.324,417.824,0.0
51139.0,STARLINK-3172,PAYLOAD,2022-03-30 22:00:00,15.49392093,0.0001467,53.2171,286.1767,55.5873,192.8658,-0.017005,-0.00864564,0.0,0 STARLINK-3172,1 51139U 22005AM  22089.91667824 -.00864564  00000-0 -17005-1 0  9991,2 51139  53.2171 286.1767 0001467  55.5873 192.8658 15.49392093  3702,6796.64,92.94,419.502,417.508,0.0
51139.0,STARLINK-3172,PAYLOAD,2022-03-31 06:00:00,15.48651836,0.000146,53.2175,284.5856,42.6421,265.7968,-0.012746,-0.00639143,0.0,0 STARLINK-3172,1 51139U 22005AM  22090.25001157 -.00639143  00000-0 -12746-1 0  9991,2 51139  53.2175 284.5856 0001460  42.6421 265.7968 15.48651836 12498,6798.806,92.984,421.664,419.67800000000005,0.0
51139.0,STARLINK-3172,PAYLOAD,2022-03-31 14:00:01,15.48201895,0.0001498,53.2178,282.998,41.6277,325.9669,-0.014577,-0.00721853,0.0,0 STARLINK-3172,1 51139U 22005AM  22090.58334491 -.00721853  00000-0 -14577-1 0  9991,2 51139  53.2178 282.9980 0001498  41.6277 325.9669 15.48201895  3673,6800.123000000001,93.011,423.007,420.969,0.0
51139.0,STARLINK-3172,PAYLOAD,2022-03-31 22:00:00,15.47617005,0.000148,53.2174,281.411,47.0917,19.1183,-0.012609,-0.00611855,0.0,0 STARLINK-3172,1 51139U 22005AM  22090.91667824 -.00611855  00000-0 -12609-1 0  9991,2 51139  53.2174 281.4110 0001480  47.0917  19.1183 15.47617005 12597,6801.8359999999975,93.046,424.708,422.695,0.0
51139.0,STARLINK-3172,PAYLOAD,2022-04-01 06:00:00,15.47141977,0.0001764,53.2172,279.8233,40.0245,84.1328,-0.013836,-0.00656583,0.0,0 STARLINK-3172,1 51139U 22005AM  22091.25001157 -.00656583  00000-0 -13836-1 0  9990,2 51139  53.2172 279.8233 0001764  40.0245  84.1328 15.47141977 12643,6803.229,93.075,426.294,423.893,0.0
51139.0,STARLINK-3172,PAYLOAD,2022-04-01 14:00:01,15.46670233,0.0001723,53.2177,278.2392,42.1668,139.3246,-0.015309,-0.00718863,0.0,0 STARLINK-3172,1 51139U 22005AM  22091.58334491 -.00718863  00000-0 -15309-1 0  9993,2 51139  53.2177 278.2392 0001723  42.1668 139.3246 15.46670233  3681,6804.611999999999,93.103,427.649,425.304,0.0
51139.0,STARLINK-3172,PAYLOAD,2022-04-01 22:00:00,15.46158988,0.000165,53.2175,276.657,46.8618,191.36900000000003,-0.015536,-0.00716845,0.0,0 STARLINK-3172,1 51139U 22005AM  22091.91667824 -.00716845  00000-0 -15536-1 0  9999,2 51139  53.2175 276.6570 0001650  46.8618 191.3690 15.46158988 12751,6806.111999999999,93.134,429.1,426.854,0.0
51139.0,STARLINK-3172,PAYLOAD,2022-04-02 22:00:01,15.44538738,0.0001444,53.217,271.9116,33.2464,11.6401,-0.013472,-0.0058938,0.0,0 STARLINK-3172,1 51139U 22005AM  22092.91668981 -.00589380  00000-0 -13472-1 0  9994,2 51139  53.2170 271.9116 0001444  33.2464  11.6401 15.44538738 12904,6810.871,93.232,433.719,431.752,0.0
51139.0,STARLINK-3172,PAYLOAD,2022-04-03 04:00:00,15.44249719,0.0001366,53.2174,270.7271,47.5338,308.0134,-0.016727,-0.00722263,0.0,0 STARLINK-3172,1 51139U 22005AM  22093.16667824 -.00722263  00000-0 -16727-1 0  9992,2 51139  53.2174 270.7271 0001366  47.5338 308.0134 15.44249719 12946,6811.721,93.249,434.516,432.655,0.0
51139.0,STARLINK-3172,PAYLOAD,2022-04-03 22:00:00,15.43096679,0.0001740999999999,53.2175,267.1794,42.8164,162.9857,-0.017136,-0.00712299,0.0,0 STARLINK-3172,1 51139U 22005AM  22093.91667824 -.00712299  00000-0 -17136-1 0  9998,2 51139  53.2175 267.1794 0001741  42.8164 162.9857 15.43096679  3661,6815.113,93.319,438.165,435.792,0.0
51139.0,STARLINK-3172,PAYLOAD,2022-04-04 04:00:00,15.42719587,0.0001771,53.2174,265.9963,39.6252,115.571,-0.017592,-0.00721267,0.0,0 STARLINK-3172,1 51139U 22005AM  22094.16667824 -.00721267  00000-0 -17592-1 0  9997,2 51139  53.2174 265.9963 0001771  39.6252 115.5710 15.42719587 13100,6816.224,93.342,439.296,436.882,0.0
51139.0,STARLINK-3172,PAYLOAD,2022-04-04 14:00:01,15.42081751,0.0001647,53.2177,264.0284,40.2799,269.8091,-0.017957,-0.00720594,0.0,0 STARLINK-3172,1 51139U 22005AM  22094.58334491 -.00720594  00000-0 -17957-1 0  9991,2 51139  53.2177 264.0284 0001647  40.2799 269.8091 15.42081751  3687,6818.103,93.38,441.091,438.845,0.0
51139.0,STARLINK-3172,PAYLOAD,2022-04-04 22:00:00,15.41569523,0.0001593,53.2175,262.457,38.6206,322.693,-0.018162,-0.00716687,0.0,0 STARLINK-3172,1 51139U 22005AM  22094.91667824 -.00716687  00000-0 -18162-1 0  9994,2 51139  53.2175 262.4570 0001593  38.6206 322.6930 15.41569523  3686,6819.614000000001,93.411,442.565,440.392,0.0
51139.0,STARLINK-3172,PAYLOAD,2022-04-05 06:00:00,15.41046009,0.0001807,53.2175,260.8825,33.2217,18.712,-0.017958,-0.00697824,0.0,0 STARLINK-3172,1 51139U 22005AM  22095.25001157 -.00697824  00000-0 -17958-1 0  9996,2 51139  53.2175 260.8825 0001807  33.2217  18.7120 15.41046009 13260,6821.158,93.443,444.256,441.79,0.0
51139.0,STARLINK-3172,PAYLOAD,2022-04-05 14:00:01,15.40551677,0.0001895,53.2176,259.3135,31.8816,70.1076,-0.018902,-0.00720669,0.0,0 STARLINK-3172,1 51139U 22005AM  22095.58335648 -.00720669  00000-0 -18902-1 0  9991,2 51139  53.2176 259.3135 0001895  31.8816  70.1076 15.40551677  3671,6822.6169999999975,93.473,445.775,443.189,0.0
51139.0,STARLINK-3172,PAYLOAD,2022-04-05 22:00:00,15.40036926,0.000168,53.2173,257.7455,42.4798,108.8324,-0.018983,-0.00712121,0.0,0 STARLINK-3172,1 51139U 22005AM  22095.91667824 -.00712121  00000-0 -18983-1 0  9995,2 51139  53.2173 257.7455 0001680  42.4798 108.8324 15.40036926 13372,6824.137,93.504,447.149,444.856,0.0
51139.0,STARLINK-3172,PAYLOAD,2022-04-06 14:00:01,15.39020288,0.0001845,53.2176,254.6095,39.0359,209.2101,-0.019792,-0.0071751,0.0,0 STARLINK-3172,1 51139U 22005AM  22096.58334491 -.00717510  00000-0 -19792-1 0  9996,2 51139  53.2176 254.6095 0001845  39.0359 209.2101 15.39020288  3683,6827.142,93.566,450.267,447.74800000000016,0.0
51139.0,STARLINK-3172,PAYLOAD,2022-04-06 22:00:00,15.38428047,0.0001683,53.2169,253.0435,44.9814,250.8546,-0.016783,-0.0059763,0.0,0 STARLINK-3172,1 51139U 22005AM  22096.91667824 -.00597630  00000-0 -16783-1 0  9998,2 51139  53.2169 253.0435 0001683  44.9814 250.8546 15.38428047 13520,6828.894,93.602,451.908,449.61,0.0
51139.0,STARLINK-3172,PAYLOAD,2022-04-07 04:00:00,15.38129788,0.000168,53.2175,251.8699,44.6439,196.4086,-0.020478,-0.00720681,0.0,0 STARLINK-3172,1 51139U 22005AM  22097.16667824 -.00720681  00000-0 -20478-1 0  9996,2 51139  53.2175 251.8699 0001680  44.6439 196.4086 15.38129788 13560,6829.776999999999,93.62,452.789,450.495,0.0
51139.0,STARLINK-3172,PAYLOAD,2022-04-07 14:00:01,15.37492009,0.0001779,53.2176,249.9164,32.3169,356.7342,-0.020899,-0.00720357,0.0,0 STARLINK-3172,1 51139U 22005AM  22097.58334491 -.00720357  00000-0 -20899-1 0  9990,2 51139  53.2176 249.9164 0001779  32.3169 356.7342 15.37492009  3674,6831.666,93.659,454.746,452.315,0.0
51139.0,STARLINK-3172,PAYLOAD,2022-04-07 22:00:00,15.36898262,0.0001767,53.2166,248.354,34.7509,40.057,-0.017888,-0.00605322,0.0,0 STARLINK-3172,1 51139U 22005AM  22097.91667824 -.00605322  00000-0 -17888-1 0  9994,2 51139  53.2166 248.3540 0001767  34.7509  40.0570 15.36898262  3637,6833.425,93.695,456.497,454.082,0.0
